     2.10           G: GLO NAV DATA                         RINEX VERSION / TYPE
sbf2rin-13.2.0                          09-APR-19 21:29     PGM / RUN BY / DATE 
    18                                                      LEAP SECONDS        
                                                            END OF HEADER       
09 19  3 19 19 45  0.0 5.996320396662E-05 1.818989403546E-12 7.116000000000E+04
    5.101430175781E+03 2.955284118652E+00-9.313225746155E-10 0.000000000000E+00
   -1.183059814453E+04-5.809383392334E-01 0.000000000000E+00-2.000000000000E+00
    2.201344189453E+04-1.003283500671E+00-2.793967723846E-09 0.000000000000E+00
19 19  3 19 19 45  0.0 4.854239523411E-05 0.000000000000E+00 7.116000000000E+04
    1.328652587891E+04-9.358167648315E-01-1.862645149231E-09 0.000000000000E+00
   -1.492673828125E+04 1.969459533691E+00 9.313225746155E-10 3.000000000000E+00
    1.585558789062E+04 2.639532089233E+00-1.862645149231E-09 0.000000000000E+00
18 19  3 19 19 45  0.0 3.719516098499E-05 1.818989403546E-12 7.116000000000E+04
    1.047278759766E+04-1.076803207397E+00 9.313225746155E-10 0.000000000000E+00
    1.966912597656E+03 2.986045837402E+00 2.793967723846E-09-3.000000000000E+00
    2.319201953125E+04 2.390642166138E-01-2.793967723846E-09 0.000000000000E+00
16 19  3 19 19 45  0.0 1.066830009222E-05 0.000000000000E+00 7.116000000000E+04
    2.228770361328E+04 1.152949333191E+00-9.313225746155E-10 0.000000000000E+00
   -8.884552246094E+03-3.840179443359E-01 2.793967723846E-09-1.000000000000E+00
    8.806277832031E+03-3.283615112305E+00-0.000000000000E+00 0.000000000000E+00
10 19  3 19 19 45  0.0 4.544854164124E-05 9.094947017729E-13 7.116000000000E+04
   -1.180319726562E+04 2.877238273621E+00-9.313225746155E-10 0.000000000000E+00
   -7.888923828125E+03-4.229373931885E-01-1.862645149231E-09-7.000000000000E+00
    2.118581738281E+04 1.436748504639E+00-2.793967723846E-09 0.000000000000E+00
08 19  3 19 19 45  0.0 1.860875636339E-05 0.000000000000E+00 7.116000000000E+04
   -1.822996777344E+04-1.363359451294E+00-9.313225746155E-10 0.000000000000E+00
   -1.078730615234E+04-1.389525413513E+00-3.725290298462E-09 6.000000000000E+00
    1.425891552734E+04-2.805193901062E+00-2.793967723846E-09 0.000000000000E+00
01 19  3 19 19 45  0.0 4.107225686312E-05 0.000000000000E+00 7.116000000000E+04
   -1.196947705078E+04-2.056939125061E+00 9.313225746155E-10 0.000000000000E+00
    2.786016601562E+03-2.264492988586E+00-9.313225746155E-10 1.000000000000E+00
    2.235751269531E+04-8.176641464233E-01-2.793967723846E-09 0.000000000000E+00
20 19  3 19 19 45  0.0-3.722701221704E-04-9.094947017729E-13 7.131000000000E+04
    8.053467285156E+03-1.056470870972E-01-4.656612873077E-09 0.000000000000E+00
   -2.405986425781E+04-3.849773406982E-01-1.862645149231E-09 2.000000000000E+00
   -2.332136718750E+03 3.592159271240E+00-0.000000000000E+00 0.000000000000E+00
19 19  3 19 20 15  0.0 4.854332655668E-05 0.000000000000E+00 7.200000000000E+04
    1.173730224609E+04-7.477874755859E-01-0.000000000000E+00 0.000000000000E+00
   -1.075799755859E+04 2.630772590637E+00 1.862645149231E-09 3.000000000000E+00
    1.993258203125E+04 1.861090660095E+00-2.793967723846E-09 0.000000000000E+00
09 19  3 19 20 15  0.0 5.996692925692E-05 1.818989403546E-12 7.200000000000E+04
    1.005006103516E+04 2.502026557922E+00-9.313225746155E-10 0.000000000000E+00
   -1.317305273438E+04-8.831233978271E-01 9.313225746155E-10-2.000000000000E+00
    1.937951269531E+04-1.904467582703E+00-2.793967723846E-09 0.000000000000E+00
10 19  3 19 20 15  0.0 4.545040428638E-05 0.000000000000E+00 7.200000000000E+04
   -6.458645996094E+03 3.009400367737E+00-9.313225746155E-10 0.000000000000E+00
   -9.097332031250E+03-9.186477661133E-01-9.313225746155E-10-7.000000000000E+00
    2.291871142578E+04 4.759407043457E-01-3.725290298462E-09 0.000000000000E+00
20 19  3 19 20 15  0.0-3.722729161382E-04-9.094947017729E-13 7.200000000000E+04
    7.598915039062E+03-3.580846786499E-01-3.725290298462E-09 0.000000000000E+00
   -2.396800439453E+04 4.975318908691E-01-0.000000000000E+00 2.000000000000E+00
    4.140395507812E+03 3.552685737610E+00-9.313225746155E-10 0.000000000000E+00
18 19  3 19 20 15  0.0 3.719888627529E-05 1.818989403546E-12 7.200000000000E+04
    8.952375488281E+03-6.011314392090E-01 2.793967723846E-09 0.000000000000E+00
    7.445976074219E+03 3.050261497498E+00 2.793967723846E-09-3.000000000000E+00
    2.272229052734E+04-7.574272155762E-01-1.862645149231E-09 0.000000000000E+00
16 19  3 19 20 15  0.0 1.066923141479E-05 0.000000000000E+00 7.200000000000E+04
    2.359007714844E+04 2.922449111938E-01-9.313225746155E-10 0.000000000000E+00
   -9.507018066406E+03-2.664480209351E-01 3.725290298462E-09-1.000000000000E+00
    2.633303710938E+03-3.530940055847E+00 0.000000000000E+00 0.000000000000E+00
01 19  3 19 20 15  0.0 4.106480628252E-05 0.000000000000E+00 7.200000000000E+04
   -1.576835986328E+04-2.119728088379E+00-0.000000000000E+00 0.000000000000E+00
   -8.393090820312E+02-1.740531921387E+00-1.862645149231E-09 1.000000000000E+00
    2.004106298828E+04-1.739444732666E+00-2.793967723846E-09 0.000000000000E+00
08 19  3 19 20 15  0.0 1.860875636339E-05 0.000000000000E+00 7.200000000000E+04
   -2.038205029297E+04-9.843883514404E-01-2.793967723846E-09 0.000000000000E+00
   -1.264347949219E+04-6.789932250977E-01-4.656612873077E-09 6.000000000000E+00
    8.724833007812E+03-3.304076194763E+00-1.862645149231E-09 0.000000000000E+00
